OBJECT_NAME,OBJECT_ID,EPOCH,MEAN_MOTION,ECCENTRICITY,INCLINATION,RA_OF_ASC_NODE,ARG_OF_PERICENTER,MEAN_ANOMALY,EPHEMERIS_TYPE,CLASSIFICATION_TYPE,NORAD_CAT_ID,ELEMENT_SET_NO,REV_AT_EPOCH,BSTAR,MEAN_MOTION_DOT,MEAN_MOTION_DDOT
SITRO-AIS 32,2024-039G,2024-10-05T11:55:02.023680,15.36870628,.0015027,97.4030,241.3011,168.0272,192.1332,0,U,59057,999,3348,.20074E-2,.73135E-3,0
SITRO-AIS 34,2024-039H,2024-10-05T13:11:59.199936,15.37108681,.001483,97.4026,241.3845,167.4905,192.6711,0,U,59058,999,3349,.20177E-2,.74079E-3,0
SITRO-AIS 36,2024-039J,2024-10-05T12:49:13.673856,15.37174344,.0014722,97.4024,241.4008,167.6800,192.4807,0,U,59059,999,3349,.20573E-2,.75706E-3,0
SITRO-AIS 49,2024-039K,2024-10-05T12:58:13.955520,15.37041708,.0014835,97.4025,241.3928,167.1791,192.9834,0,U,59060,999,3349,.20777E-2,.7614E-3,0
SITRO-AIS 50,2024-039L,2024-10-05T12:22:55.100064,15.37411204,.0014637,97.4023,241.4230,166.5861,193.5775,0,U,59061,999,3349,.20806E-2,.77163E-3,0
SITRO-AIS 51,2024-039M,2024-10-05T12:21:48.071808,15.37410553,.0014591,97.4024,241.4230,166.8385,193.3243,0,U,59062,999,3349,.20442E-2,.75795E-3,0
SITRO-AIS 52,2024-039N,2024-10-05T12:01:35.823648,15.37558925,.0014419,97.4025,241.4448,166.5052,193.6581,0,U,59063,999,3349,.21523E-2,.8023E-3,0
ZORKIY-2M 2,2024-039P,2024-10-05T13:00:00.502272,15.33651552,.0014928,97.4021,241.0891,170.0147,190.1395,0,U,59064,999,3348,.14566E-2,.47716E-3,0
PARS 1,2024-039Q,2024-10-05T12:16:13.404000,15.28863236,.001386,97.4074,240.5785,167.7261,192.4319,0,U,59065,999,3341,.83629E-3,.23492E-3,0
SITRO-AIS 25,2024-039R,2024-10-05T13:07:48.974304,14.84937765,.0165105,95.3927,172.1572,323.7873,35.2258,0,U,59066,999,3247,.17746E-2,.19315E-3,0
SITRO-AIS 26,2024-039S,2024-10-05T13:12:39.649824,14.84843717,.0165183,95.3926,172.1534,323.8144,35.1989,0,U,59067,999,3247,.17522E-2,.19026E-3,0
SITRO-AIS 27,2024-039T,2024-10-05T12:39:02.129472,14.85082659,.0164525,95.3927,172.1802,323.6343,35.3786,0,U,59068,999,3247,.19205E-2,.20955E-3,0
HULIANWAN GAOGUI-01 (HG-01),2024-040A,2024-10-02T06:22:42.819168,1.00270524,.0006159,0.0119,40.4291,294.3229,166.0704,0,U,59069,999,108,0,.156E-5,0
SITRO-AIS 28,2024-039U,2024-10-05T12:30:34.216704,14.85132271,.0164345,95.3929,172.1877,323.6190,35.3947,0,U,59071,999,3247,.19167E-2,.2093E-3,0
MARAFON-D GVM,2024-039V,2024-10-04T21:14:25.910304,14.45396557,.0014402,89.0035,357.9634,276.7798,83.1768,0,U,59072,999,3156,.51566E-3,.183E-4,0
STARLINK-31265,2024-041A,2024-10-05T12:59:12.830208,15.25948340,.0001519,43.0035,4.5987,268.5956,91.4721,0,U,59074,999,3477,-.76512E-4,-.2261E-4,0
STARLINK-31276,2024-041B,2024-10-05T12:30:07.343712,15.25900431,.0003328,43.0074,5.3384,277.8873,82.1601,0,U,59075,999,3479,.48228E-4,.1003E-4,0
STARLINK-31259,2024-041C,2024-10-05T12:26:53.798208,15.25882383,.0002035,43.0017,5.3174,274.8357,85.2262,0,U,59076,999,3476,-.19393E-5,-.308E-5,0
STARLINK-31281,2024-041D,2024-10-05T12:23:38.339808,15.25867377,.0001737,42.9964,5.2964,123.5588,236.5429,0,U,59077,999,3481,.28544E-4,.488E-5,0
STARLINK-31274,2024-041E,2024-10-04T13:22:04.857888,15.25916152,.000243,43.0059,10.1108,277.1398,82.9176,0,U,59078,999,3461,-.30741E-3,-.8292E-4,0
STARLINK-31257,2024-041F,2024-10-05T12:52:44.444064,15.25905234,.0001473,43.0023,4.5660,277.0903,82.9780,0,U,59079,999,3477,.23731E-3,.5954E-4,0
STARLINK-31299,2024-041G,2024-10-05T08:21:08.412192,15.40699412,.0002127,43.0080,286.1731,278.1719,81.8897,0,U,59080,999,3568,.86041E-4,.3292E-4,0
STARLINK-31292,2024-041H,2024-10-05T12:10:34.713408,15.25934151,.0001345,42.9995,5.2214,156.9870,203.1041,0,U,59081,999,3476,.76685E-4,.175E-4,0
STARLINK-31286,2024-041J,2024-10-05T05:50:16.107072,15.25928448,.0000659,43.0030,6.6836,286.1076,73.9702,0,U,59082,999,3472,.11224E-3,.2681E-4,0
STARLINK-31252,2024-041K,2024-10-05T05:09:45.117792,15.50881021,.0009797,43.0034,337.8702,68.7332,291.4574,0,U,59083,999,3509,.21849E-2,.131636E-2,0
STARLINK-31261,2024-041L,2024-10-05T12:49:28.319520,15.25902102,.0001414,42.9958,4.5470,272.0559,88.0130,0,U,59084,999,3482,-.13663E-3,-.3829E-4,0
STARLINK-31290,2024-041M,2024-10-05T14:00:01.999872,15.27551541,.0001289,43.0013,4.2532,246.5336,37.1668,0,U,59085,999,3482,-.35378E-2,-.96276E-3,0
STARLINK-31279,2024-041N,2024-10-05T12:46:13.402848,15.25911019,.0001408,43.0015,4.5334,279.4360,80.6331,0,U,59086,999,3482,.67547E-4,.151E-4,0
STARLINK-31266,2024-041P,2024-10-05T07:08:15.311616,15.25930449,.0000737,42.9995,6.2099,256.2741,103.8028,0,U,59087,999,3478,.22171E-3,.555E-4,0
STARLINK-31313,2024-041Q,2024-10-05T07:05:00.513312,15.25907218,.0000857,43.0026,6.1932,252.5048,107.5709,0,U,59088,999,3473,.18985E-4,.239E-5,0
STARLINK-31307,2024-041R,2024-10-05T12:20:09.228480,15.25933597,.0001336,42.9963,4.4150,188.5521,171.5308,0,U,59089,999,3482,.39229E-3,.10025E-3,0
STARLINK-31316,2024-041S,2024-10-05T04:56:27.314016,15.40715207,.0000954,43.0014,341.3206,186.4951,173.5894,0,U,59090,999,3496,-.10892E-3,-.4852E-4,0
STARLINK-31310,2024-041U,2024-10-05T13:12:18.717696,15.25882966,.0001985,42.9997,4.6550,292.1691,67.8949,0,U,59092,999,3477,-.33414E-3,-.8981E-4,0
STARLINK-31343,2024-041V,2024-10-05T12:39:42.281280,15.25909896,.0001055,43.0036,4.5014,255.8065,104.2669,0,U,59093,999,3481,-.51066E-4,-.1593E-4,0
STARLINK-31295,2024-041X,2024-10-05T13:05:46.574880,15.25906902,.000108,43.0017,4.6270,261.0035,99.0694,0,U,59095,999,3477,-.99736E-4,-.2865E-4,0
STARLINK-31291,2024-041Y,2024-10-05T12:36:26.616384,15.25910248,.0000738,43.0000,4.4838,286.3149,73.7621,0,U,59096,999,3475,-.24616E-3,-.669E-4,0
CREW DRAGON 8,2024-042A,2024-10-04T21:19:59.117952,15.49199651,.0009188,51.6362,132.0170,38.0613,322.1023,0,U,59097,999,47550,.4204E-3,.22971E-3,0
HORACIO,2024-043A,2024-10-05T13:23:12.542784,14.92900223,.0010719,97.7814,41.4991,289.3806,70.6254,0,U,59098,999,3199,.11874E-2,.12283E-3,0
MUSAT2,2024-043B,2024-10-04T21:53:50.602272,14.95386219,.0009019,97.7737,41.0680,289.3821,70.6424,0,U,59099,999,3193,.23936E-2,.26478E-3,0
ICEYE-X38,2024-043C,2024-10-05T13:08:03.184512,15.01324878,.0002551,97.7742,43.0131,35.7742,324.3652,0,U,59100,999,3211,.17114E-2,.22029E-3,0
METHANESAT,2024-043D,2024-10-04T21:03:49.986432,14.93490994,.0008846,97.7759,40.8744,283.9405,76.0831,0,U,59101,999,3191,.14486E-2,.15224E-3,0
ICEYE-X37,2024-043E,2024-10-05T07:05:41.363232,14.97250732,.0008141,97.7767,41.8856,272.1287,87.9003,0,U,59102,999,3201,.19706E-2,.2284E-3,0
ICEYE-X36,2024-043F,2024-10-04T20:59:32.826336,14.98568342,.0006588,97.7705,41.3933,270.7151,89.3316,0,U,59103,999,3195,.19136E-2,.2294E-3,0
PE2_FLT2  (TYVAK-0262),2024-043G,2024-10-05T07:03:34.234272,14.94736351,.0007044,97.7761,41.4639,272.5001,87.5413,0,U,59104,999,3199,.17395E-2,.18885E-3,0
PE2_FLT1 (TYVAK-0261),2024-043H,2024-10-04T21:24:45.055296,14.94761037,.0008178,97.7723,41.1016,264.8488,95.1799,0,U,59105,999,3193,.18229E-2,.19811E-3,0
RROCI-2,2024-043J,2024-10-04T20:33:00.133056,14.94097655,.0007605,97.7744,40.9994,269.0530,90.9818,0,U,59106,999,3192,.12064E-2,.12859E-3,0
BRO-13,2024-043K,2024-10-05T13:08:50.839296,14.93368049,.0008342,97.7799,41.7994,260.8308,99.1968,0,U,59107,999,3202,.69897E-3,.7285E-4,0
BRO-12,2024-043L,2024-10-05T12:20:20.264352,14.93615515,.0007609,97.7792,41.8026,256.5708,103.4664,0,U,59108,999,3202,.6468E-3,.6778E-4,0
2024-043M,2024-043M,2024-10-05T04:56:42.646560,15.44312286,.0009902,97.4814,44.8800,246.7085,113.3121,0,U,59109,999,3270,.47398E-2,.224642E-2,0
IRIS-F1,2024-043N,2024-10-04T20:34:54.337440,15.24788172,.0011785,97.4803,41.8271,284.8690,75.1242,0,U,59110,999,3248,.29107E-2,.72875E-3,0
2024-043P,2024-043P,2024-10-04T06:24:30.210912,15.25628696,.0012928,97.4873,41.5642,273.0919,86.8839,0,U,59111,999,3240,.21306E-2,.54571E-3,0
SONATE-2,2024-043Q,2024-10-04T21:11:56.620608,15.22854215,.001319,97.4910,41.8948,270.1854,89.7871,0,U,59112,999,3247,.16603E-2,.39063E-3,0
2024-043R,2024-043R,2024-10-05T06:59:32.865504,15.25956101,.0012574,97.4865,42.6472,268.5831,91.3967,0,U,59113,999,3256,.23307E-2,.60331E-3,0
2024-043S,2024-043S,2024-10-05T06:48:14.347296,15.26595824,.0013058,97.4918,42.7803,261.9307,98.0450,0,U,59114,999,3256,.24371E-2,.6436E-3,0
LEMUR-2-CHARLIE-ROSE,2024-043T,2024-10-04T21:51:01.984896,15.45138131,.0011383,97.4770,44.1013,257.2908,102.7068,0,U,59115,999,3263,.44431E-2,.216426E-2,0
LEMUR-2-FELDHUS,2024-043U,2024-10-05T08:16:47.476416,15.45498189,.0012551,97.4716,44.6176,257.4139,102.5706,0,U,59116,999,3271,.39675E-2,.195196E-2,0
CONTECSAT-1,2024-043V,2024-10-05T12:10:13.502208,15.20293506,.0013679,97.4947,42.3752,264.2277,95.7399,0,U,59117,999,3255,.11071E-2,.24097E-3,0
LACE-1,2024-043W,2024-10-04T21:21:00.038592,15.30470726,.0010697,97.4862,42.8789,264.4952,95.5069,0,U,59118,999,3254,.31326E-2,.93414E-3,0
2024-043X,2024-043X,2024-10-05T07:57:53.972352,15.29090207,.0009956,97.4833,43.0881,264.4489,95.5616,0,U,59119,999,3260,.27835E-2,.79384E-3,0
TIGER-8,2024-043Y,2024-10-05T07:50:15.857952,15.25250934,.00115,97.4909,42.6862,266.0133,93.9790,0,U,59120,999,3256,.21786E-2,.55152E-3,0
LYNK TOWER 5,2024-043Z,2024-10-04T21:30:32.549184,15.19830969,.0012543,97.4906,41.5350,268.4993,91.4805,0,U,59121,999,3245,.10352E-2,.22212E-3,0
NUSAT-44 (MARIA MITCHELL),2024-043AA,2024-10-05T12:36:38.156832,15.23289272,.0011777,97.4903,42.7040,262.2353,97.7546,0,U,59122,999,3258,.13875E-2,.33013E-3,0
LYNK TOWER 6,2024-043AB,2024-10-04T21:47:08.482848,15.19432278,.0011683,97.4875,41.4478,269.1882,90.8014,0,U,59123,999,3245,.88552E-3,.18759E-3,0
VSP ROSE,2024-043AC,2024-10-05T12:45:52.500960,15.20068934,.0011546,97.4882,42.1511,263.1258,96.8664,0,U,59124,999,3255,.65667E-3,.14143E-3,0
2024-043AD,2024-043AD,2024-10-04T21:22:11.508672,15.21439622,.00114,97.4916,41.8846,264.6001,95.3934,0,U,59125,999,3247,.10211E-2,.22955E-3,0
YAM-6,2024-043AE,2024-10-04T21:48:00.095616,15.21343007,.0010597,97.4868,41.7272,264.7742,95.2285,0,U,59126,999,3247,.11979E-2,.26874E-3,0
